{
  "type": "FeatureCollection",
  "features": [
    {
      "type": "Feature",
      "properties": { "ward": 1, "alderman": "Valencia Hall", "email": "vhall@natchez.ms.us", "phone": "6014431265" },
      "geometry": { "type": "Polygon", "coordinates": [[[-91.4180,31.5900],[-91.3920,31.5900],[-91.3920,31.5720],[-91.4050,31.5720],[-91.4180,31.5750],[-91.4180,31.5900]]] }
    },
    {
      "type": "Feature",
      "properties": { "ward": 2, "alderman": "Billie Joe Frazier", "email": "bfrazier@natchez.ms.us", "phone": "6014457500" },
      "geometry": { "type": "Polygon", "coordinates": [[[-91.3920,31.5900],[-91.3600,31.5900],[-91.3600,31.5600],[-91.3920,31.5600],[-91.3920,31.5900]]] }
    },
    {
      "type": "Feature",
      "properties": { "ward": 3, "alderman": "Sarah Carter-Smith", "email": "ssmith@natchez.ms.us", "phone": "6013341537" },
      "geometry": { "type": "Polygon", "coordinates": [[[-91.3920,31.5720],[-91.3600,31.5720],[-91.3600,31.5450],[-91.3920,31.5450],[-91.3920,31.5720]]] }
    },
    {
      "type": "Feature",
      "properties": { "ward": 4, "alderman": "Felicia Bridgewater-Irving", "email": "firving@natchez.ms.us", "phone": "6014457500" },
      "geometry": { "type": "Polygon", "coordinates": [[[-91.4180,31.5720],[-91.3920,31.5720],[-91.3920,31.5450],[-91.4100,31.5450],[-91.4180,31.5500],[-91.4180,31.5720]]] }
    },
    {
      "type": "Feature",
      "properties": { "ward": 5, "alderman": "Benjamin Davis", "email": "bdavis@natchez.ms.us", "phone": "6014457500" },
      "geometry": { "type": "Polygon", "coordinates": [[[-91.4100,31.5500],[-91.3600,31.5500],[-91.3600,31.5300],[-91.4100,31.5300],[-91.4100,31.5500]]] }
    },
    {
      "type": "Feature",
      "properties": { "ward": 6, "alderman": "Curtis Moroney", "email": "cmoroney@natchez.ms.us", "phone": "6014457500" },
      "geometry": { "type": "Polygon", "coordinates": [[[-91.4500,31.5800],[-91.4180,31.5800],[-91.4180,31.5450],[-91.4500,31.5450],[-91.4500,31.5800]]] }
    }
  ]
}
